NORAD_CAT_ID,OBJECT_NAME,OBJECT_TYPE,EPOCH,MEAN_MOTION,ECCENTRICITY,INCLINATION,RA_OF_ASC_NODE,ARG_OF_PERICENTER,MEAN_ANOMALY,BSTAR,MEAN_MOTION_DOT,MEAN_MOTION_DDOT,TLE_LINE0,TLE_LINE1,TLE_LINE2,SEMIMAJOR_AXIS,PERIOD,APOGEE,PERIGEE,DECAYED
55960.0,STARLINK-5938,PAYLOAD,2023-12-11 14:00:01,14.98353236,0.0003447,69.9993,169.5373,272.4608,64.9684,-0.001719,-0.00020557,0.0,0 STARLINK-5938,1 55960U 23037AY  23345.58334491 -.00020557  00000-0 -17190-2 0  9995,2 55960  69.9993 169.5373 0003447 272.4608  64.9684 14.98353236 42123,6950.121,96.106,574.382,569.59,0.0
55960.0,STARLINK-5938,PAYLOAD,2023-12-11 22:00:01,14.9831891,0.0003474,69.9993,168.6967,277.9123,57.0851,0.002104,0.00025095,0.0,0 STARLINK-5938,1 55960U 23037AY  23345.91668981  .00025095  00000-0  21040-2 0  9995,2 55960  69.9993 168.6967 0003474 277.9123  57.0851 14.98318910  5773,6950.227,96.108,574.507,569.678,0.0
55960.0,STARLINK-5938,PAYLOAD,2023-12-12 00:00:00,14.98324904,0.000352,69.9991,168.4865,278.1955,146.1084,0.0012804,0.00015216,0.0,0 STARLINK-5938,1 55960U 23037AY  23346.00001157  .00015216  00000-0  12804-2 0  9994,2 55960  69.9991 168.4865 0003520 278.1955 146.1084 14.98324904 42188,6950.209,96.107,574.52,569.627,0.0
55960.0,STARLINK-5938,PAYLOAD,2023-12-12 14:08:04,14.98330766,0.0003305,69.9984,167.0011,272.0511,88.027,1.4357e-05,7.8e-07,0.0,0 STARLINK-5938,1 55960U 23037AY  23346.58894037  .00000078  00000-0  14357-4 0  9991,2 55960  69.9984 167.0011 0003305 272.0511  88.0270 14.98330766 41936,6950.191,96.107,574.353,569.758,0.0
55960.0,STARLINK-5938,PAYLOAD,2023-12-12 20:32:36,14.98330664,0.0003316,69.9986,166.3279,272.6302,87.4477,1.2945e-05,6.1e-07,0.0,0 STARLINK-5938,1 55960U 23037AY  23346.85598026  .00000061  00000-0  12945-4 0  9993,2 55960  69.9986 166.3279 0003316 272.6302  87.4477 14.98330664 42314,6950.191,96.107,574.361,569.751,0.0
55960.0,STARLINK-5938,PAYLOAD,2023-12-12 22:08:44,14.98331291,0.0003303,69.9987,166.1598,272.044,88.0341,1.9261e-05,1.37e-06,0.0,0 STARLINK-5938,1 55960U 23037AY  23346.92273961  .00000137  00000-0  19261-4 0  9991,2 55960  69.9987 166.1598 0003303 272.0440  88.0341 14.98331291 41986,6950.189,96.107,574.35,569.758,0.0
55960.0,STARLINK-5938,PAYLOAD,2023-12-13 14:10:06,14.9832458,0.0002701,69.999,164.4769,242.2853,117.8032,-3.2574e-05,-4.82e-06,0.0,0 STARLINK-5938,1 55960U 23037AY  23347.59035829 -.00000482  00000-0 -32574-4 0  9991,2 55960  69.9990 164.4769 0002701 242.2853 117.8032 14.98324580 42082,6950.21,96.107,573.952,570.197,0.0
55960.0,STARLINK-5938,PAYLOAD,2023-12-13 18:58:31,14.98327388,0.0003232,69.999,163.9721,274.1094,85.9695,1.7522e-05,1.16e-06,0.0,0 STARLINK-5938,1 55960U 23037AY  23347.79063758  .00000116  00000-0  17522-4 0  9993,2 55960  69.9990 163.9721 0003232 274.1094  85.9695 14.98327388 42455,6950.201,96.107,574.312,569.82,0.0
55960.0,STARLINK-5938,PAYLOAD,2023-12-13 22:10:47,14.98327629,0.0003257,69.9989,163.6352,275.1868,84.892,2.311e-05,1.83e-06,0.0,0 STARLINK-5938,1 55960U 23037AY  23347.92415803  .00000183  00000-0  23110-4 0  9994,2 55960  69.9989 163.6352 0003257 275.1868  84.8920 14.98327629 42139,6950.2,96.107,574.329,569.802,0.0
55960.0,STARLINK-5938,PAYLOAD,2023-12-14 14:12:07,14.9832984,0.0003324,69.9989,161.952,276.584,83.4941,5.6115e-05,5.77e-06,0.0,0 STARLINK-5938,1 55960U 23037AY  23348.59175764  .00000577  00000-0  56115-4 0  9995,2 55960  69.9989 161.9520 0003324 276.5840  83.4941 14.98329840 42233,6950.193,96.107,574.369,569.748,0.0
55960.0,STARLINK-5938,PAYLOAD,2023-12-14 20:36:39,14.98331594,0.0003247,69.999,161.279,274.2657,85.8131,7.8621e-05,8.45e-06,0.0,0 STARLINK-5938,1 55960U 23037AY  23348.85879602  .00000845  00000-0  78621-4 0  9990,2 55960  69.9990 161.2790 0003247 274.2657  85.8131 14.98331594 42610,6950.188,96.107,574.31,569.796,0.0
55960.0,STARLINK-5938,PAYLOAD,2023-12-15 14:14:08,14.98339409,0.0003236,69.9987,159.4272,275.9285,84.1505,6.6327e-05,6.99e-06,0.0,0 STARLINK-5938,1 55960U 23037AY  23349.59315598  .00000699  00000-0  66327-4 0  9998,2 55960  69.9987 159.4272 0003236 275.9285  84.1505 14.98339409 42387,6950.164,96.106,574.278,569.78,0.0
55960.0,STARLINK-5938,PAYLOAD,2023-12-15 20:38:40,14.98340977,0.0003204,69.9988,158.7539,275.8286,84.2508,8.125e-05,8.77e-06,0.0,0 STARLINK-5938,1 55960U 23037AY  23349.86019270  .00000877  00000-0  81250-4 0  9996,2 55960  69.9988 158.7539 0003204 275.8286  84.2508 14.98340977 42422,6950.159,96.106,574.251,569.797,0.0
55960.0,STARLINK-5938,PAYLOAD,2023-12-16 14:16:08,14.98346437,0.0003246,69.9986,156.9021,274.1715,85.9073,5.8221e-05,6.02e-06,0.0,0 STARLINK-5938,1 55960U 23037AY  23350.59454290  .00000602  00000-0  58221-4 0  9991,2 55960  69.9986 156.9021 0003246 274.1715  85.9073 14.98346437 42535,6950.142,96.106,574.263,569.751,0.0
55960.0,STARLINK-5938,PAYLOAD,2023-12-16 20:40:40,14.9834806,0.0003173,69.9989,156.2294,272.8044,87.2752,7.4094e-05,7.92e-06,0.0,0 STARLINK-5938,1 55960U 23037AY  23350.86157822  .00000792  00000-0  74094-4 0  9998,2 55960  69.9989 156.2294 0003173 272.8044  87.2752 14.98348060 42579,6950.137,96.106,574.207,569.797,0.0
55960.0,STARLINK-5938,PAYLOAD,2023-12-17 12:42:01,14.9833538,0.0002771,70.0,154.5481,259.0444,101.0403,-8.2199e-05,-1.074e-05,0.0,0 STARLINK-5938,1 55960U 23037AY  23351.52918476 -.00001074  00000-0 -82199-4 0  9993,2 55960  70.0000 154.5481 0002771 259.0444 101.0403 14.98335380 43018,6950.176,96.107,573.967,570.115,0.0
55960.0,STARLINK-5938,PAYLOAD,2023-12-17 14:18:09,14.98335115,0.0002777,70.0,154.3798,258.8955,101.1892,-8.4316e-05,-1.099e-05,0.0,0 STARLINK-5938,1 55960U 23037AY  23351.59594465 -.00001099  00000-0 -84316-4 0  9998,2 55960  70.0000 154.3798 0002777 258.8955 101.1892 14.98335115 42688,6950.177,96.107,573.972,570.112,0.0
55960.0,STARLINK-5938,PAYLOAD,2023-12-17 20:42:41,14.98333359,0.0002836,69.9998,153.7061,261.6698,98.414,-0.000102,-1.31e-05,0.0,0 STARLINK-5938,1 55960U 23037AY  23351.86298536 -.00001310  00000-0 -10200-3 0  9994,2 55960  69.9998 153.7061 0002836 261.6698  98.4140 14.98333359 42726,6950.183,96.107,574.019,570.076,0.0
55960.0,STARLINK-5938,PAYLOAD,2023-12-18 11:07:53,14.98341979,0.000284,69.9998,152.1908,262.9919,97.0917,-5.5808e-05,-7.59e-06,0.0,0 STARLINK-5938,1 55960U 23037AY  23352.46381504 -.00000759  00000-0 -55808-4 0  9999,2 55960  69.9998 152.1908 0002840 262.9919  97.0917 14.98341979 43156,6950.156,96.106,573.995,570.047,0.0
55960.0,STARLINK-5938,PAYLOAD,2023-12-18 14:20:09,14.98340628,0.000288,69.9997,151.8542,263.5971,96.486,-7.0965e-05,-9.4e-06,0.0,0 STARLINK-5938,1 55960U 23037AY  23352.59733531 -.00000940  00000-0 -70965-4 0  9997,2 55960  69.9997 151.8542 0002880 263.5971  96.4860 14.98340628 42838,6950.16,96.106,574.027,570.023,0.0
55960.0,STARLINK-5938,PAYLOAD,2023-12-18 20:44:41,14.98340208,0.0002903,69.9998,151.1813,264.5752,95.5076,-6.8269e-05,-9.08e-06,0.0,0 STARLINK-5938,1 55960U 23037AY  23352.86437395 -.00000908  00000-0 -68269-4 0  9994,2 55960  69.9998 151.1813 0002903 264.5752  95.5076 14.98340208 42874,6950.161,96.106,574.044,570.009,0.0
55960.0,STARLINK-5938,PAYLOAD,2023-12-19 11:09:54,14.98329113,0.0002987,69.9997,149.6668,262.9032,97.1787,1.1071e-05,3.9e-07,0.0,0 STARLINK-5938,1 55960U 23037AY  23353.46521653  .00000039  00000-0  11071-4 0  9994,2 55960  69.9997 149.6668 0002987 262.9032  97.1787 14.98329113 43306,6950.196,96.107,574.137,569.985,0.0
55960.0,STARLINK-5938,PAYLOAD,2023-12-19 14:22:10,14.9832906,0.0002991,69.9997,149.3301,262.6833,97.3986,9.1638e-06,1.6e-07,0.0,0 STARLINK-5938,1 55960U 23037AY  23353.59873658  .00000016  00000-0  91638-5 0  9996,2 55960  69.9997 149.3301 0002991 262.6833  97.3986 14.98329060 42985,6950.196,96.107,574.14,569.982,0.0
55960.0,STARLINK-5938,PAYLOAD,2023-12-20 11:11:55,14.98331802,0.0002884,70.0001,147.1425,262.7714,97.3117,-2.1106e-05,-3.45e-06,0.0,0 STARLINK-5938,1 55960U 23037AY  23354.46661529 -.00000345  00000-0 -21106-4 0  9994,2 55960  70.0001 147.1425 0002884 262.7714  97.3117 14.98331802 43453,6950.187,96.107,574.057,570.048,0.0
55960.0,STARLINK-5938,PAYLOAD,2023-12-20 14:24:11,14.98331447,0.0002898,70.0002,146.8057,262.0647,98.0183,-2.3721e-05,-3.76e-06,0.0,0 STARLINK-5938,1 55960U 23037AY  23354.60013531 -.00000376  00000-0 -23721-4 0  9993,2 55960  70.0002 146.8057 0002898 262.0647  98.0183 14.98331447 43135,6950.188,96.107,574.068,570.039,0.0
55960.0,STARLINK-5938,PAYLOAD,2023-12-20 20:48:43,14.98360303,0.000268,70.0002,146.1325,266.1569,93.9283,-0.00049599,-6.011e-05,0.0,0 STARLINK-5938,1 55960U 23037AY  23354.86716783 -.00006011  00000-0 -49599-3 0  9992,2 55960  70.0002 146.1325 0002680 266.1569  93.9283 14.98360303 43175,6950.099,96.105,573.827,570.102,0.0
55960.0,STARLINK-5938,PAYLOAD,2023-12-21 11:13:56,14.98328058,0.0002888,70.0002,144.6177,260.6589,99.4244,-3.1664e-06,-1.31e-06,0.0,0 STARLINK-5938,1 55960U 23037AY  23355.46801613 -.00000131  00000-0 -31664-5 0  9999,2 55960  70.0002 144.6177 0002888 260.6589  99.4244 14.98328058 43601,6950.199,96.107,574.071,570.057,0.0
55960.0,STARLINK-5938,PAYLOAD,2023-12-21 14:26:12,14.9832728,0.0002898,70.0003,144.2814,256.5549,103.5287,-9.5414e-06,-2.07e-06,0.0,0 STARLINK-5938,1 55960U 23037AY  23355.60153664 -.00000207  00000-0 -95414-5 0  9998,2 55960  70.0003 144.2814 0002898 256.5549 103.5287 14.98327280 43281,6950.201,96.107,574.08,570.052,0.0
55960.0,STARLINK-5938,PAYLOAD,2023-12-22 11:15:56,14.98342136,0.000353,69.9989,142.0914,272.3976,87.6779,7.993e-05,8.61e-06,0.0,0 STARLINK-5938,1 55960U 23037AY  23356.46940302  .00000861  00000-0  79930-4 0  9994,2 55960  69.9989 142.0914 0003530 272.3976  87.6779 14.98342136 43759,6950.155,96.106,574.474,569.567,0.0
55960.0,STARLINK-5938,PAYLOAD,2023-12-22 14:28:12,14.9834087,0.0003873,69.9985,141.7519,282.8723,77.2004,9.557e-05,1.048e-05,0.0,0 STARLINK-5938,1 55960U 23037AY  23356.60292285  .00001048  00000-0  95570-4 0  9996,2 55960  69.9985 141.7519 0003873 282.8723  77.2004 14.98340870 43432,6950.159,96.106,574.716,569.332,0.0
